[{"OBJECT_NAME":"STARLINK-4593","OBJECT_ID":"2022-104AX","EPOCH":"2026-03-09T17:56:11.141952","MEAN_MOTION":15.08839163,"ECCENTRICITY":0.00011977,"INCLINATION":53.2173,"RA_OF_ASC_NODE":223.8871,"ARG_OF_PERICENTER":90.7205,"MEAN_ANOMALY":269.3924,"EPHEMERIS_TYPE":0,"CLASSIFICATION_TYPE":"U","NORAD_CAT_ID":53633,"ELEMENT_SET_NO":999,"REV_AT_EPOCH":19590,"BSTAR":4.0774444e-5,"MEAN_MOTION_DOT":3.61e-6,"MEAN_MOTION_DDOT":0},{"OBJECT_NAME":"OBJECT T","OBJECT_ID":"2018-099T","EPOCH":"2026-03-09T14:32:29.418720","MEAN_MOTION":15.09436097,"ECCENTRICITY":0.0004517,"INCLINATION":97.4347,"RA_OF_ASC_NODE":115.9313,"ARG_OF_PERICENTER":320.9739,"MEAN_ANOMALY":39.1164,"EPHEMERIS_TYPE":0,"CLASSIFICATION_TYPE":"U","NORAD_CAT_ID":43775,"ELEMENT_SET_NO":999,"REV_AT_EPOCH":39729,"BSTAR":0.00032877,"MEAN_MOTION_DOT":5.2e-5,"MEAN_MOTION_DDOT":0}]
